{
  "type": "FeatureCollection",
  "features": [
    {
      "type": "Feature",
      "properties": {
        "norad_id": 31342,
        "name": "FENGYUN 1C DEB",
        "group": "fengyun-1c-debris",
        "lat": -8.743127215300783,
        "lon": 118.54629981695483,
        "alt_km": 711.7372430123123,
        "timestamp": "2025-12-09T18:55:17.513703+00:00",
        "meta_object_name": "FENGYUN 1C DEB",
        "meta_object_id": "1999-025BQW",
        "meta_epoch": "2025-11-29T02:18:53.046720",
        "meta_mean_motion": 14.36748173,
        "meta_eccentricity": 0.01111347,
        "meta_inclination": 98.9329,
        "meta_ra_of_asc_node": 288.8418,
        "meta_arg_of_pericenter": 259.8555,
        "meta_mean_anomaly": 99.0079,
        "meta_ephemeris_type": 0,
        "meta_classification_type": "U",
        "meta_norad_cat_id": 31342,
        "meta_element_set_no": 999,
        "meta_rev_at_epoch": 97695,
        "meta_bstar": 0.00017184307,
        "meta_mean_motion_dot": 4.93e-06,
        "meta_mean_motion_ddot": 0,
        "tle_line1": "1 31342U 99025BQW 25333.09644730  .00000493  00000+0  17184-3 0  9996",
        "tle_line2": "2 31342  98.9329 288.8418 0111134 259.8555  99.0079 14.36748173976958"
      },
      "geometry": {
        "type": "Point",
        "coordinates": [
          118.54629981695483,
          -8.743127215300783
        ]
      }
    },
    {
      "type": "Feature",
      "properties": {
        "norad_id": 31346,
        "name": "FENGYUN 1C DEB",
        "group": "fengyun-1c-debris",
        "lat": -55.67214175979959,
        "lon": -36.498152298752935,
        "alt_km": 529.2712677685067,
        "timestamp": "2025-12-09T18:55:17.513714+00:00",
        "meta_object_name": "FENGYUN 1C DEB",
        "meta_object_id": "1999-025BRA",
        "meta_epoch": "2025-12-09T03:16:21.785664",
        "meta_mean_motion": 15.10677919,
        "meta_eccentricity": 0.0111607,
        "meta_inclination": 98.8663,
        "meta_ra_of_asc_node": 309.5327,
        "meta_arg_of_pericenter": 27.3726,
        "meta_mean_anomaly": 333.3319,
        "meta_ephemeris_type": 0,
        "meta_classification_type": "U",
        "meta_norad_cat_id": 31346,
        "meta_element_set_no": 999,
        "meta_rev_at_epoch": 99441,
        "meta_bstar": 0.0014906777,
        "meta_mean_motion_dot": 0.00028649,
        "meta_mean_motion_ddot": 0,
        "tle_line1": "1 31346U 99025BRA 25343.13636326  .00028649  00000+0  14907-2 0  9990",
        "tle_line2": "2 31346  98.8663 309.5327 0111607  27.3726 333.3319 15.10677919994419"
      },
      "geometry": {
        "type": "Point",
        "coordinates": [
          -36.498152298752935,
          -55.67214175979959
        ]
      }
    },
    {
      "type": "Feature",
      "properties": {
        "norad_id": 31348,
        "name": "FENGYUN 1C DEB",
        "group": "fengyun-1c-debris",
        "lat": 59.46497816293001,
        "lon": -81.192185754353,
        "alt_km": 748.0023445018878,
        "timestamp": "2025-12-09T18:55:17.513724+00:00",
        "meta_object_name": "FENGYUN 1C DEB",
        "meta_object_id": "1999-025BRC",
        "meta_epoch": "2025-12-08T08:10:46.398720",
        "meta_mean_motion": 14.33993846,
        "meta_eccentricity": 0.00352025,
        "meta_inclination": 99.1191,
        "meta_ra_of_asc_node": 293.0834,
        "meta_arg_of_pericenter": 78.0004,
        "meta_mean_anomaly": 74.0816,
        "meta_ephemeris_type": 0,
        "meta_classification_type": "U",
        "meta_norad_cat_id": 31348,
        "meta_element_set_no": 999,
        "meta_rev_at_epoch": 96186,
        "meta_bstar": 0.0019749425,
        "meta_mean_motion_dot": 5.507e-05,
        "meta_mean_motion_ddot": 0,
        "tle_line1": "1 31348U 99025BRC 25342.34081480  .00005507  00000+0  19749-2 0  9996",
        "tle_line2": "2 31348  99.1191 293.0834 0035202  78.0004  74.0816 14.33993846961867"
      },
      "geometry": {
        "type": "Point",
        "coordinates": [
          -81.192185754353,
          59.46497816293001
        ]
      }
    },
    {
      "type": "Feature",
      "properties": {
        "norad_id": 31350,
        "name": "FENGYUN 1C DEB",
        "group": "fengyun-1c-debris",
        "lat": -45.42974472438954,
        "lon": 164.9110159199879,
        "alt_km": 830.0646450899749,
        "timestamp": "2025-12-09T18:55:17.513733+00:00",
        "meta_object_name": "FENGYUN 1C DEB",
        "meta_object_id": "1999-025BRE",
        "meta_epoch": "2025-12-08T18:02:03.920064",
        "meta_mean_motion": 14.34830277,
        "meta_eccentricity": 0.00667483,
        "meta_inclination": 98.9604,
        "meta_ra_of_asc_node": 154.6193,
        "meta_arg_of_pericenter": 136.9079,
        "meta_mean_anomaly": 223.7357,
        "meta_ephemeris_type": 0,
        "meta_classification_type": "U",
        "meta_norad_cat_id": 31350,
        "meta_element_set_no": 999,
        "meta_rev_at_epoch": 70196,
        "meta_bstar": 0.0010632143,
        "meta_mean_motion_dot": 3.049e-05,
        "meta_mean_motion_ddot": 0,
        "tle_line1": "1 31350U 99025BRE 25342.75143426  .00003049  00000+0  10632-2 0  9994",
        "tle_line2": "2 31350  98.9604 154.6193 0066748 136.9079 223.7357 14.34830277701966"
      },
      "geometry": {
        "type": "Point",
        "coordinates": [
          164.9110159199879,
          -45.42974472438954
        ]
      }
    },
    {
      "type": "Feature",
      "properties": {
        "norad_id": 31351,
        "name": "FENGYUN 1C DEB",
        "group": "fengyun-1c-debris",
        "lat": 59.988956706788436,
        "lon": 166.1928737857466,
        "alt_km": 828.8674925391524,
        "timestamp": "2025-12-09T18:55:17.513743+00:00",
        "meta_object_name": "FENGYUN 1C DEB",
        "meta_object_id": "1999-025BRF",
        "meta_epoch": "2025-12-05T22:12:04.612896",
        "meta_mean_motion": 14.06922487,
        "meta_eccentricity": 0.00937925,
        "meta_inclination": 98.7943,
        "meta_ra_of_asc_node": 326.89,
        "meta_arg_of_pericenter": 70.3082,
        "meta_mean_anomaly": 290.8177,
        "meta_ephemeris_type": 0,
        "meta_classification_type": "U",
        "meta_norad_cat_id": 31351,
        "meta_element_set_no": 999,
        "meta_rev_at_epoch": 61279,
        "meta_bstar": 0.00046990462,
        "meta_mean_motion_dot": 7.73e-06,
        "meta_mean_motion_ddot": 0,
        "tle_line1": "1 31351U 99025BRF 25339.92505339  .00000773  00000+0  46990-3 0  9993",
        "tle_line2": "2 31351  98.7943 326.8900 0093792  70.3082 290.8177 14.06922487612795"
      },
      "geometry": {
        "type": "Point",
        "coordinates": [
          166.1928737857466,
          59.988956706788436
        ]
      }
    },
    {
      "type": "Feature",
      "properties": {
        "norad_id": 31353,
        "name": "FENGYUN 1C DEB",
        "group": "fengyun-1c-debris",
        "lat": 80.93743935328868,
        "lon": -174.08531512749616,
        "alt_km": 624.2929817847908,
        "timestamp": "2025-12-09T18:55:17.513753+00:00",
        "meta_object_name": "FENGYUN 1C DEB",
        "meta_object_id": "1999-025BRH",
        "meta_epoch": "2025-12-08T13:58:15.944736",
        "meta_mean_motion": 14.29829751,
        "meta_eccentricity": 0.0229354,
        "meta_inclination": 98.9912,
        "meta_ra_of_asc_node": 267.7094,
        "meta_arg_of_pericenter": 79.5278,
        "meta_mean_anomaly": 283.1658,
        "meta_ephemeris_type": 0,
        "meta_classification_type": "U",
        "meta_norad_cat_id": 31353,
        "meta_element_set_no": 999,
        "meta_rev_at_epoch": 96525,
        "meta_bstar": 0.00080756,
        "meta_mean_motion_dot": 2.712e-05,
        "meta_mean_motion_ddot": 0,
        "tle_line1": "1 31353U 99025BRH 25342.58212899  .00002712  00000+0  80756-3 0  9990",
        "tle_line2": "2 31353  98.9912 267.7094 0229354  79.5278 283.1658 14.29829751965251"
      },
      "geometry": {
        "type": "Point",
        "coordinates": [
          -174.08531512749616,
          80.93743935328868
        ]
      }
    },
    {
      "type": "Feature",
      "properties": {
        "norad_id": 31357,
        "name": "FENGYUN 1C DEB",
        "group": "fengyun-1c-debris",
        "lat": 57.16268803561394,
        "lon": -151.54166892416396,
        "alt_km": 860.1675124139501,
        "timestamp": "2025-12-09T18:55:17.513763+00:00",
        "meta_object_name": "FENGYUN 1C DEB",
        "meta_object_id": "1999-025BRM",
        "meta_epoch": "2025-12-09T01:41:07.209312",
        "meta_mean_motion": 14.18525568,
        "meta_eccentricity": 0.00490288,
        "meta_inclination": 98.6118,
        "meta_ra_of_asc_node": 14.1806,
        "meta_arg_of_pericenter": 303.4832,
        "meta_mean_anomaly": 112.8448,
        "meta_ephemeris_type": 0,
        "meta_classification_type": "U",
        "meta_norad_cat_id": 31357,
        "meta_element_set_no": 999,
        "meta_rev_at_epoch": 96652,
        "meta_bstar": 6.3184511e-05,
        "meta_mean_motion_dot": 8.9e-07,
        "meta_mean_motion_ddot": 0,
        "tle_line1": "1 31357U 99025BRM 25343.07022233  .00000089  00000+0  63185-4 0  9993",
        "tle_line2": "2 31357  98.6118  14.1806 0049028 303.4832 112.8448 14.18525568966521"
      },
      "geometry": {
        "type": "Point",
        "coordinates": [
          -151.54166892416396,
          57.16268803561394
        ]
      }
    }
  ]
}